KUIPER-00156            
1 65775U 25217P   26074.07067819  .00006105  00000+0  82891-3 0  9996
2 65775  51.9046   1.8317 0000823 109.1631 250.9420 14.79941579 25916
KUIPER-00158            
1 65776U 25217Q   26074.06966421  .00006201  00000+0  82786-3 0  9993
2 65776  51.8981  21.6440 0001273  73.7065 286.4037 14.80635308 25648
KUIPER-00163            
1 65777U 25217R   26074.25001157  .00032708  00000+0  17746-2 0  9995
2 65777  51.9066  21.0672 0002080 133.3203 215.1864 15.14264053  5007
KUIPER-00165            
1 65778U 25217S   26074.05990752  .00001823  00000+0  26792-3 0  9998
2 65778  51.9014  11.8452 0000154  43.8079 316.2895 14.79951818 25775
KUIPER-00166            
1 65779U 25217T   26074.03962785 -.00004497  00000+0 -56087-3 0  9994
2 65779  51.9037 359.4650 0000976 130.4372 229.6675 14.79963002 25943
KUIPER-00167            
1 65780U 25217U   26074.04909451 -.00001069  00000+0 -11130-3 0  9990
2 65780  51.8993  21.8619 0000680  82.1915 277.9124 14.79935456 25631
KUIPER-00168            
1 65781U 25217V   26074.06799385  .00006018  00000+0  81733-3 0  9999
2 65781  51.9024   4.3174 0000878 104.8979 255.2081 14.79949749 25889
KUIPER-00169            
1 65782U 25217W   26072.03779846  .00005306  00000+0  72506-3 0  9992
2 65782  51.9023  18.3086 0000887 101.0177 259.0885 14.79900251 25514
KUIPER-00170            
1 65783U 25217X   26074.12458840  .00005949  00000+0  81067-3 0  9998
2 65783  51.9009  14.0530 0000711  73.0024 287.1016 14.79826160 25751
KUIPER-00172            
1 65785U 25217Z   26074.07598062  .00003288  00000+0  49772-3 0  9996
2 65785  51.9004 355.0646 0001730   5.0178 355.0800 14.76536389 26015
KUIPER-00173            
1 65786U 25217AA  26074.10861669  .00005586  00000+0  82513-3 0  9990
2 65786  51.9024   8.5737 0000729 127.9885 232.1142 14.76466061 25826
KUIPER-00174            
1 65787U 25217AB  26074.10179592  .00004516  00000+0  62109-3 0  9999
2 65787  51.9052   4.1965 0000832  90.8847 269.2211 14.79923207 25881
KUIPER-00176            
1 65788U 25217AC  26074.15295808  .00001423  00000+0  21557-3 0  9990
2 65788  51.9011  18.9351 0000646  55.2316 304.8707 14.79940773 25689
KUIPER-00101            
1 65947U 25228A   26074.03022931  .00001434  00000+0  21718-3 0  9992
2 65947  51.8986 336.9610 0000827  95.3392 264.7664 14.79905781 24020
KUIPER-00113            
1 65948U 25228B   26073.93433811  .00005637  00000+0  76765-3 0  9995
2 65948  51.8996 332.4029 0000782  91.7462 268.3590 14.79943837 24072
KUIPER-00117            
1 65949U 25228C   26073.96539042 -.00003474  00000+0 -42716-3 0  9990
2 65949  51.8974 334.7674 0000622  87.7895 272.3139 14.79916465 24046
KUIPER-00121            
1 65950U 25228D   26074.00456157  .00005639  00000+0  76785-3 0  9999
2 65950  51.9013 329.5922 0000854 118.2219 241.8829 14.79946325 24122
