[{"OBJECT_NAME":"KUIPER-00156","OBJECT_ID":"2025-217P","EPOCH":"2026-03-15T01:41:46.595616","MEAN_MOTION":14.79941579,"ECCENTRICITY":8.239e-5,"INCLINATION":51.9046,"RA_OF_ASC_NODE":1.8317,"ARG_OF_PERICENTER":109.1631,"MEAN_ANOMALY":250.942,"EPHEMERIS_TYPE":0,"CLASSIFICATION_TYPE":"U","NORAD_CAT_ID":65775,"ELEMENT_SET_NO":999,"REV_AT_EPOCH":2591,"BSTAR":0.00082891153,"MEAN_MOTION_DOT":6.105e-5,"MEAN_MOTION_DDOT":0},{"OBJECT_NAME":"KUIPER-00158","OBJECT_ID":"2025-217Q","EPOCH":"2026-03-15T01:40:18.987744","MEAN_MOTION":14.80635308,"ECCENTRICITY":0.00012735,"INCLINATION":51.8981,"RA_OF_ASC_NODE":21.644,"ARG_OF_PERICENTER":73.7065,"MEAN_ANOMALY":286.4037,"EPHEMERIS_TYPE":0,"CLASSIFICATION_TYPE":"U","NORAD_CAT_ID":65776,"ELEMENT_SET_NO":999,"REV_AT_EPOCH":2564,"BSTAR":0.00082786245,"MEAN_MOTION_DOT":6.201e-5,"MEAN_MOTION_DDOT":0},{"OBJECT_NAME":"KUIPER-00163","OBJECT_ID":"2025-217R","EPOCH":"2026-03-15T06:00:00.999648","MEAN_MOTION":15.14264053,"ECCENTRICITY":0.00020805,"INCLINATION":51.9066,"RA_OF_ASC_NODE":21.0672,"ARG_OF_PERICENTER":133.3203,"MEAN_ANOMALY":215.1864,"EPHEMERIS_TYPE":0,"CLASSIFICATION_TYPE":"U","NORAD_CAT_ID":65777,"ELEMENT_SET_NO":999,"REV_AT_EPOCH":500,"BSTAR":0.0017746259,"MEAN_MOTION_DOT":0.00032708,"MEAN_MOTION_DDOT":0},{"OBJECT_NAME":"KUIPER-00165","OBJECT_ID":"2025-217S","EPOCH":"2026-03-15T01:26:16.009728","MEAN_MOTION":14.79951818,"ECCENTRICITY":1.549e-5,"INCLINATION":51.9014,"RA_OF_ASC_NODE":11.8452,"ARG_OF_PERICENTER":43.8079,"MEAN_ANOMALY":316.2895,"EPHEMERIS_TYPE":0,"CLASSIFICATION_TYPE":"U","NORAD_CAT_ID":65778,"ELEMENT_SET_NO":999,"REV_AT_EPOCH":2577,"BSTAR":0.00026792328,"MEAN_MOTION_DOT":1.823e-5,"MEAN_MOTION_DDOT":0},{"OBJECT_NAME":"KUIPER-00166","OBJECT_ID":"2025-217T","EPOCH":"2026-03-15T00:57:03.846240","MEAN_MOTION":14.79963002,"ECCENTRICITY":9.761e-5,"INCLINATION":51.9037,"RA_OF_ASC_NODE":359.465,"ARG_OF_PERICENTER":130.4372,"MEAN_ANOMALY":229.6675,"EPHEMERIS_TYPE":0,"CLASSIFICATION_TYPE":"U","NORAD_CAT_ID":65779,"ELEMENT_SET_NO":999,"REV_AT_EPOCH":2594,"BSTAR":-0.00056086603,"MEAN_MOTION_DOT":-4.497e-5,"MEAN_MOTION_DDOT":0},{"OBJECT_NAME":"KUIPER-00167","OBJECT_ID":"2025-217U","EPOCH":"2026-03-15T01:10:41.765664","MEAN_MOTION":14.79935456,"ECCENTRICITY":6.801e-5,"INCLINATION":51.8993,"RA_OF_ASC_NODE":21.8619,"ARG_OF_PERICENTER":82.1915,"MEAN_ANOMALY":277.9124,"EPHEMERIS_TYPE":0,"CLASSIFICATION_TYPE":"U","NORAD_CAT_ID":65780,"ELEMENT_SET_NO":999,"REV_AT_EPOCH":2563,"BSTAR":-0.00011129694,"MEAN_MOTION_DOT":-1.069e-5,"MEAN_MOTION_DDOT":0},{"OBJECT_NAME":"KUIPER-00168","OBJECT_ID":"2025-217V","EPOCH":"2026-03-15T01:37:54.668640","MEAN_MOTION":14.79949749,"ECCENTRICITY":8.788e-5,"INCLINATION":51.9024,"RA_OF_ASC_NODE":4.3174,"ARG_OF_PERICENTER":104.8979,"MEAN_ANOMALY":255.2081,"EPHEMERIS_TYPE":0,"CLASSIFICATION_TYPE":"U","NORAD_CAT_ID":65781,"ELEMENT_SET_NO":999,"REV_AT_EPOCH":2588,"BSTAR":0.00081732658,"MEAN_MOTION_DOT":6.018e-5,"MEAN_MOTION_DDOT":0},{"OBJECT_NAME":"KUIPER-00169","OBJECT_ID":"2025-217W","EPOCH":"2026-03-13T00:54:25.786944","MEAN_MOTION":14.79900251,"ECCENTRICITY":8.879e-5,"INCLINATION":51.9023,"RA_OF_ASC_NODE":18.3086,"ARG_OF_PERICENTER":101.0177,"MEAN_ANOMALY":259.0885,"EPHEMERIS_TYPE":0,"CLASSIFICATION_TYPE":"U","NORAD_CAT_ID":65782,"ELEMENT_SET_NO":999,"REV_AT_EPOCH":2551,"BSTAR":0.00072505596,"MEAN_MOTION_DOT":5.306e-5,"MEAN_MOTION_DDOT":0},{"OBJECT_NAME":"KUIPER-00170","OBJECT_ID":"2025-217X","EPOCH":"2026-03-15T02:59:24.437760","MEAN_MOTION":14.7982616,"ECCENTRICITY":7.111e-5,"INCLINATION":51.9009,"RA_OF_ASC_NODE":14.053,"ARG_OF_PERICENTER":73.0024,"MEAN_ANOMALY":287.1016,"EPHEMERIS_TYPE":0,"CLASSIFICATION_TYPE":"U","NORAD_CAT_ID":65783,"ELEMENT_SET_NO":999,"REV_AT_EPOCH":2575,"BSTAR":0.00081066786,"MEAN_MOTION_DOT":5.949e-5,"MEAN_MOTION_DDOT":0},{"OBJECT_NAME":"KUIPER-00172","OBJECT_ID":"2025-217Z","EPOCH":"2026-03-15T01:49:24.725568","MEAN_MOTION":14.76536389,"ECCENTRICITY":0.00017306,"INCLINATION":51.9004,"RA_OF_ASC_NODE":355.0646,"ARG_OF_PERICENTER":5.0178,"MEAN_ANOMALY":355.08,"EPHEMERIS_TYPE":0,"CLASSIFICATION_TYPE":"U","NORAD_CAT_ID":65785,"ELEMENT_SET_NO":999,"REV_AT_EPOCH":2601,"BSTAR":0.00049771915,"MEAN_MOTION_DOT":3.288e-5,"MEAN_MOTION_DDOT":0},{"OBJECT_NAME":"KUIPER-00173","OBJECT_ID":"2025-217AA","EPOCH":"2026-03-15T02:36:24.482016","MEAN_MOTION":14.76466061,"ECCENTRICITY":7.291e-5,"INCLINATION":51.9024,"RA_OF_ASC_NODE":8.5737,"ARG_OF_PERICENTER":127.9885,"MEAN_ANOMALY":232.1142,"EPHEMERIS_TYPE":0,"CLASSIFICATION_TYPE":"U","NORAD_CAT_ID":65786,"ELEMENT_SET_NO":999,"REV_AT_EPOCH":2582,"BSTAR":0.00082512776,"MEAN_MOTION_DOT":5.586e-5,"MEAN_MOTION_DDOT":0},{"OBJECT_NAME":"KUIPER-00174","OBJECT_ID":"2025-217AB","EPOCH":"2026-03-15T02:26:35.167488","MEAN_MOTION":14.79923207,"ECCENTRICITY":8.323e-5,"INCLINATION":51.9052,"RA_OF_ASC_NODE":4.1965,"ARG_OF_PERICENTER":90.8847,"MEAN_ANOMALY":269.2211,"EPHEMERIS_TYPE":0,"CLASSIFICATION_TYPE":"U","NORAD_CAT_ID":65787,"ELEMENT_SET_NO":999,"REV_AT_EPOCH":2588,"BSTAR":0.00062108782,"MEAN_MOTION_DOT":4.516e-5,"MEAN_MOTION_DDOT":0},{"OBJECT_NAME":"KUIPER-00176","OBJECT_ID":"2025-217AC","EPOCH":"2026-03-15T03:40:15.578112","MEAN_MOTION":14.79940773,"ECCENTRICITY":6.465e-5,"INCLINATION":51.9011,"RA_OF_ASC_NODE":18.9351,"ARG_OF_PERICENTER":55.2316,"MEAN_ANOMALY":304.8707,"EPHEMERIS_TYPE":0,"CLASSIFICATION_TYPE":"U","NORAD_CAT_ID":65788,"ELEMENT_SET_NO":999,"REV_AT_EPOCH":2568,"BSTAR":0.00021556786,"MEAN_MOTION_DOT":1.423e-5,"MEAN_MOTION_DDOT":0},{"OBJECT_NAME":"KUIPER-00101","OBJECT_ID":"2025-228A","EPOCH":"2026-03-15T00:43:31.812384","MEAN_MOTION":14.79905781,"ECCENTRICITY":8.274e-5,"INCLINATION":51.8986,"RA_OF_ASC_NODE":336.961,"ARG_OF_PERICENTER":95.3392,"MEAN_ANOMALY":264.7664,"EPHEMERIS_TYPE":0,"CLASSIFICATION_TYPE":"U","NORAD_CAT_ID":65947,"ELEMENT_SET_NO":999,"REV_AT_EPOCH":2402,"BSTAR":0.00021717879,"MEAN_MOTION_DOT":1.434e-5,"MEAN_MOTION_DDOT":0},{"OBJECT_NAME":"KUIPER-00113","OBJECT_ID":"2025-228B","EPOCH":"2026-03-14T22:25:26.812704","MEAN_MOTION":14.79943837,"ECCENTRICITY":7.822e-5,"INCLINATION":51.8996,"RA_OF_ASC_NODE":332.4029,"ARG_OF_PERICENTER":91.7462,"MEAN_ANOMALY":268.359,"EPHEMERIS_TYPE":0,"CLASSIFICATION_TYPE":"U","NORAD_CAT_ID":65948,"ELEMENT_SET_NO":999,"REV_AT_EPOCH":2407,"BSTAR":0.00076764714,"MEAN_MOTION_DOT":5.637e-5,"MEAN_MOTION_DDOT":0},{"OBJECT_NAME":"KUIPER-00117","OBJECT_ID":"2025-228C","EPOCH":"2026-03-14T23:10:09.732288","MEAN_MOTION":14.79916465,"ECCENTRICITY":6.224e-5,"INCLINATION":51.8974,"RA_OF_ASC_NODE":334.7674,"ARG_OF_PERICENTER":87.7895,"MEAN_ANOMALY":272.3139,"EPHEMERIS_TYPE":0,"CLASSIFICATION_TYPE":"U","NORAD_CAT_ID":65949,"ELEMENT_SET_NO":999,"REV_AT_EPOCH":2404,"BSTAR":-0.00042716035,"MEAN_MOTION_DOT":-3.474e-5,"MEAN_MOTION_DDOT":0},{"OBJECT_NAME":"KUIPER-00121","OBJECT_ID":"2025-228D","EPOCH":"2026-03-15T00:06:34.119648","MEAN_MOTION":14.79946325,"ECCENTRICITY":8.544e-5,"INCLINATION":51.9013,"RA_OF_ASC_NODE":329.5922,"ARG_OF_PERICENTER":118.2219,"MEAN_ANOMALY":241.8829,"EPHEMERIS_TYPE":0,"CLASSIFICATION_TYPE":"U","NORAD_CAT_ID":65950,"ELEMENT_SET_NO":999,"REV_AT_EPOCH":2412,"BSTAR":0.00076785085,"MEAN_MOTION_DOT":5.639e-5,"MEAN_MOTION_DDOT":0}]
